[{"OBJECT_NAME":"ONEWEB-0439","OBJECT_ID":"2022-012P","EPOCH":"2026-03-09T22:01:17.565888","MEAN_MOTION":13.10375228,"ECCENTRICITY":0.0001742,"INCLINATION":87.8773,"RA_OF_ASC_NODE":56.0355,"ARG_OF_PERICENTER":87.1621,"MEAN_ANOMALY":272.9706,"EPHEMERIS_TYPE":0,"CLASSIFICATION_TYPE":"U","NORAD_CAT_ID":51635,"ELEMENT_SET_NO":999,"REV_AT_EPOCH":19632,"BSTAR":-0.0014744001,"MEAN_MOTION_DOT":-5.02e-6,"MEAN_MOTION_DDOT":0},{"OBJECT_NAME":"SL-14 R\/B","OBJECT_ID":"1981-094B","EPOCH":"2026-03-09T21:30:19.492416","MEAN_MOTION":13.58083744,"ECCENTRICITY":0.08704644,"INCLINATION":82.4854,"RA_OF_ASC_NODE":232.0333,"ARG_OF_PERICENTER":95.3527,"MEAN_ANOMALY":274.7433,"EPHEMERIS_TYPE":0,"CLASSIFICATION_TYPE":"U","NORAD_CAT_ID":12849,"ELEMENT_SET_NO":999,"REV_AT_EPOCH":17275,"BSTAR":0.00019877381,"MEAN_MOTION_DOT":2.264e-5,"MEAN_MOTION_DDOT":0}]
